{
  "type": "FeatureCollection",
  "features": [
    {
      "type": "Feature",
      "properties": {
        "norad_id": 66174,
        "name": "HTV-X1",
        "group": "stations",
        "lat": -32.08482217171509,
        "lon": 70.60487363096499,
        "alt_km": 419.71914929393006,
        "timestamp": "2025-12-21T05:44:50.324951+00:00",
        "meta_object_name": "HTV-X1",
        "meta_object_id": "2025-241A",
        "meta_epoch": "2025-12-20T16:00:06.135552",
        "meta_mean_motion": 15.49686708,
        "meta_eccentricity": 0.00031636,
        "meta_inclination": 51.6321,
        "meta_ra_of_asc_node": 103.2234,
        "meta_arg_of_pericenter": 277.4707,
        "meta_mean_anomaly": 82.5922,
        "meta_ephemeris_type": 0,
        "meta_classification_type": "U",
        "meta_norad_cat_id": 66174,
        "meta_element_set_no": 999,
        "meta_rev_at_epoch": 51,
        "meta_bstar": 0.00013711052,
        "meta_mean_motion_dot": 7.293e-05,
        "meta_mean_motion_ddot": 0,
        "tle_line1": "1 66174U 25241A   25354.66673768  .00007293  00000+0  13711-3 0  9992",
        "tle_line2": "2 66174  51.6321 103.2234 0003163 277.4707  82.5922 15.49686708   514"
      },
      "geometry": {
        "type": "Point",
        "coordinates": [
          70.60487363096499,
          -32.08482217171509
        ]
      }
    },
    {
      "type": "Feature",
      "properties": {
        "norad_id": 66515,
        "name": "SZ-21 MODULE",
        "group": "stations",
        "lat": 29.998845323542724,
        "lon": 4.988745268463564,
        "alt_km": 375.18612894526086,
        "timestamp": "2025-12-21T05:44:50.324961+00:00",
        "meta_object_name": "SZ-21 MODULE",
        "meta_object_id": "2025-246C",
        "meta_epoch": "2025-12-20T23:24:14.872896",
        "meta_mean_motion": 15.62888699,
        "meta_eccentricity": 0.00054503,
        "meta_inclination": 41.4771,
        "meta_ra_of_asc_node": 325.7933,
        "meta_arg_of_pericenter": 303.7455,
        "meta_mean_anomaly": 56.2865,
        "meta_ephemeris_type": 0,
        "meta_classification_type": "U",
        "meta_norad_cat_id": 66515,
        "meta_element_set_no": 999,
        "meta_rev_at_epoch": 573,
        "meta_bstar": 0.00022985973,
        "meta_mean_motion_dot": 0.00021102,
        "meta_mean_motion_ddot": 0,
        "tle_line1": "1 66515U 25246C   25354.97517214  .00021102  00000+0  22986-3 0  9992",
        "tle_line2": "2 66515  41.4771 325.7933 0005450 303.7455  56.2865 15.62888699  5731"
      },
      "geometry": {
        "type": "Point",
        "coordinates": [
          4.988745268463564,
          29.998845323542724
        ]
      }
    },
    {
      "type": "Feature",
      "properties": {
        "norad_id": 66645,
        "name": "SHENZHOU-22",
        "group": "stations",
        "lat": 24.048643333295114,
        "lon": -4.5565682107515775,
        "alt_km": 383.0072194662753,
        "timestamp": "2025-12-21T05:44:50.324971+00:00",
        "meta_object_name": "SHENZHOU-22",
        "meta_object_id": "2025-272A",
        "meta_epoch": "2025-12-20T23:26:14.890272",
        "meta_mean_motion": 15.59514827,
        "meta_eccentricity": 0.00077445,
        "meta_inclination": 41.4685,
        "meta_ra_of_asc_node": 326.6888,
        "meta_arg_of_pericenter": 103.1948,
        "meta_mean_anomaly": 256.9755,
        "meta_ephemeris_type": 0,
        "meta_classification_type": "U",
        "meta_norad_cat_id": 66645,
        "meta_element_set_no": 999,
        "meta_rev_at_epoch": 26519,
        "meta_bstar": 0.00017446348,
        "meta_mean_motion_dot": 0.00013949,
        "meta_mean_motion_ddot": 0,
        "tle_line1": "1 66645U 25272A   25354.97656123  .00013949  00000+0  17446-3 0  9993",
        "tle_line2": "2 66645  41.4685 326.6888 0007744 103.1948 256.9755 15.59514827265195"
      },
      "geometry": {
        "type": "Point",
        "coordinates": [
          -4.5565682107515775,
          24.048643333295114
        ]
      }
    },
    {
      "type": "Feature",
      "properties": {
        "norad_id": 66664,
        "name": "SOYUZ-MS 28",
        "group": "stations",
        "lat": -32.08482085387238,
        "lon": 70.60487530496155,
        "alt_km": 419.7191492596603,
        "timestamp": "2025-12-21T05:44:50.324981+00:00",
        "meta_object_name": "SOYUZ-MS 28",
        "meta_object_id": "2025-275A",
        "meta_epoch": "2025-12-20T16:00:06.135552",
        "meta_mean_motion": 15.49686708,
        "meta_eccentricity": 0.00031636,
        "meta_inclination": 51.6321,
        "meta_ra_of_asc_node": 103.2234,
        "meta_arg_of_pericenter": 277.4707,
        "meta_mean_anomaly": 82.5922,
        "meta_ephemeris_type": 0,
        "meta_classification_type": "U",
        "meta_norad_cat_id": 66664,
        "meta_element_set_no": 999,
        "meta_rev_at_epoch": 128,
        "meta_bstar": 0.00013711052,
        "meta_mean_motion_dot": 7.293e-05,
        "meta_mean_motion_ddot": 0,
        "tle_line1": "1 66664U 25275A   25354.66673768  .00007293  00000+0  13711-3 0  9993",
        "tle_line2": "2 66664  51.6321 103.2234 0003163 277.4707  82.5922 15.49686708  1283"
      },
      "geometry": {
        "type": "Point",
        "coordinates": [
          70.60487530496155,
          -32.08482085387238
        ]
      }
    },
    {
      "type": "Feature",
      "properties": {
        "norad_id": 66906,
        "name": "1998-067XS",
        "group": "stations",
        "lat": 17.581518591670918,
        "lon": 114.7887078932851,
        "alt_km": 413.61420255402754,
        "timestamp": "2025-12-21T05:44:50.324991+00:00",
        "meta_object_name": "1998-067XS",
        "meta_object_id": "1998-067XS",
        "meta_epoch": "2025-12-20T11:05:35.991168",
        "meta_mean_motion": 15.50962254,
        "meta_eccentricity": 0.00030029,
        "meta_inclination": 51.6311,
        "meta_ra_of_asc_node": 104.1082,
        "meta_arg_of_pericenter": 237.5,
        "meta_mean_anomaly": 122.5699,
        "meta_ephemeris_type": 0,
        "meta_classification_type": "U",
        "meta_norad_cat_id": 66906,
        "meta_element_set_no": 999,
        "meta_rev_at_epoch": 281,
        "meta_bstar": 0.00037246497,
        "meta_mean_motion_dot": 0.00021596,
        "meta_mean_motion_ddot": 0,
        "tle_line1": "1 66906U 98067XS  25354.46222212  .00021596  00000+0  37246-3 0  9994",
        "tle_line2": "2 66906  51.6311 104.1082 0003002 237.5000 122.5699 15.50962254  2818"
      },
      "geometry": {
        "type": "Point",
        "coordinates": [
          114.7887078932851,
          17.581518591670918
        ]
      }
    },
    {
      "type": "Feature",
      "properties": {
        "norad_id": 66907,
        "name": "1998-067XT",
        "group": "stations",
        "lat": 48.88995743149692,
        "lon": 165.35623623575174,
        "alt_km": 405.48810104087624,
        "timestamp": "2025-12-21T05:44:50.325001+00:00",
        "meta_object_name": "1998-067XT",
        "meta_object_id": "1998-067XT",
        "meta_epoch": "2025-12-19T11:42:50.767776",
        "meta_mean_motion": 15.52255247,
        "meta_eccentricity": 0.0003998,
        "meta_inclination": 51.6306,
        "meta_ra_of_asc_node": 108.8528,
        "meta_arg_of_pericenter": 265.7173,
        "meta_mean_anomaly": 94.336,
        "meta_ephemeris_type": 0,
        "meta_classification_type": "U",
        "meta_norad_cat_id": 66907,
        "meta_element_set_no": 999,
        "meta_rev_at_epoch": 266,
        "meta_bstar": 0.00077339,
        "meta_mean_motion_dot": 0.00047666,
        "meta_mean_motion_ddot": 0,
        "tle_line1": "1 66907U 98067XT  25353.48808759  .00047666  00000+0  77339-3 0  9995",
        "tle_line2": "2 66907  51.6306 108.8528 0003998 265.7173  94.3360 15.52255247  2660"
      },
      "geometry": {
        "type": "Point",
        "coordinates": [
          165.35623623575174,
          48.88995743149692
        ]
      }
    },
    {
      "type": "Feature",
      "properties": {
        "norad_id": 66908,
        "name": "1998-067XU",
        "group": "stations",
        "lat": 50.24339964253741,
        "lon": 172.38031844750043,
        "alt_km": 404.9883219070771,
        "timestamp": "2025-12-21T05:44:50.325011+00:00",
        "meta_object_name": "1998-067XU",
        "meta_object_id": "1998-067XU",
        "meta_epoch": "2025-12-20T13:57:38.962944",
        "meta_mean_motion": 15.52465702,
        "meta_eccentricity": 0.0003923,
        "meta_inclination": 51.6312,
        "meta_ra_of_asc_node": 103.4063,
        "meta_arg_of_pericenter": 272.2862,
        "meta_mean_anomaly": 87.7679,
        "meta_ephemeris_type": 0,
        "meta_classification_type": "U",
        "meta_norad_cat_id": 66908,
        "meta_element_set_no": 999,
        "meta_rev_at_epoch": 283,
        "meta_bstar": 0.00073918,
        "meta_mean_motion_dot": 0.00045874,
        "meta_mean_motion_ddot": 0,
        "tle_line1": "1 66908U 98067XU  25354.58170096  .00045874  00000+0  73918-3 0  9992",
        "tle_line2": "2 66908  51.6312 103.4063 0003923 272.2862  87.7679 15.52465702  2836"
      },
      "geometry": {
        "type": "Point",
        "coordinates": [
          172.38031844750043,
          50.24339964253741
        ]
      }
    }
  ]
}